ONEWEB-0020             
1 45133U 20008C   23307.82070736 -.00000232  00000+0 -69971-3 0  9997
2 45133  87.8922 226.1808 0001609  76.9271 283.2035 13.10376109183870
ONEWEB-0021             
1 45134U 20008D   23307.83533534  .00000482  00000+0  13431-2 0  9993
2 45134  87.8926 226.1829 0001726  66.7279 293.4030 13.10376439184272
ONEWEB-0022             
1 45135U 20008E   23307.86003359  .00000276  00000+0  75555-3 0  9991
2 45135  87.8923 226.1963 0001506  88.6554 271.4746 13.10383067183852
ONEWEB-0023             
1 45136U 20008F   23307.84833443  .00000572  00000+0  16029-2 0  9994
2 45136  87.8922 226.1731 0002213  82.4805 277.6573 13.10374064183585
ONEWEB-0024             
1 45137U 20008G   23308.27723348 -.00000350  00000+0 -10382-2 0  9997
2 45137  87.8918 226.0987 0001703  65.7467 294.3838 13.10376768183802
ONEWEB-0025             
1 45138U 20008H   23308.29512143  .00000515  00000+0  14380-2 0  9992
2 45138  87.8927 226.0938 0002000  67.6889 292.4450 13.10376456184139
ONEWEB-0026             
1 45139U 20008J   23308.23531262 -.00109524  00000+0 -31400+0 0  9991
2 45139  87.9033 210.9786 0001890  73.9583 286.1753 13.11139497186691
ONEWEB-0028             
1 45140U 20008K   23307.96191116  .00000486  00000+0  13344-2 0  9997
2 45140  87.9005 211.0806 0002406  65.8004 294.3375 13.11412746183294
